[{"OBJECT_NAME":"YAOGAN-14","OBJECT_ID":"2012-021A","EPOCH":"2026-03-09T23:13:16.463424","MEAN_MOTION":15.26486019,"ECCENTRICITY":0.00056417,"INCLINATION":97.2863,"RA_OF_ASC_NODE":208.4378,"ARG_OF_PERICENTER":161.6562,"MEAN_ANOMALY":198.4882,"EPHEMERIS_TYPE":0,"CLASSIFICATION_TYPE":"U","NORAD_CAT_ID":38257,"ELEMENT_SET_NO":999,"REV_AT_EPOCH":77067,"BSTAR":0.00037795498,"MEAN_MOTION_DOT":9.798e-5,"MEAN_MOTION_DDOT":0},{"OBJECT_NAME":"STARLINK-30258","OBJECT_ID":"2023-119G","EPOCH":"2026-03-09T22:00:01.999584","MEAN_MOTION":15.1321438,"ECCENTRICITY":0.00015657,"INCLINATION":43.0009,"RA_OF_ASC_NODE":80.0826,"ARG_OF_PERICENTER":276.5997,"MEAN_ANOMALY":78.2853,"EPHEMERIS_TYPE":0,"CLASSIFICATION_TYPE":"U","NORAD_CAT_ID":57608,"ELEMENT_SET_NO":999,"REV_AT_EPOCH":578,"BSTAR":0.041208095,"MEAN_MOTION_DOT":0.0079779,"MEAN_MOTION_DDOT":0}]
